[{"OBJECT_NAME":"ONEWEB-0502","OBJECT_ID":"2022-138H","EPOCH":"2026-03-09T23:36:22.107744","MEAN_MOTION":13.19722538,"ECCENTRICITY":0.00017304,"INCLINATION":87.9238,"RA_OF_ASC_NODE":324.7142,"ARG_OF_PERICENTER":94.9524,"MEAN_ANOMALY":265.1807,"EPHEMERIS_TYPE":0,"CLASSIFICATION_TYPE":"U","NORAD_CAT_ID":54120,"ELEMENT_SET_NO":999,"REV_AT_EPOCH":16374,"BSTAR":0.00035776674,"MEAN_MOTION_DOT":1.56e-6,"MEAN_MOTION_DDOT":0},{"OBJECT_NAME":"COSMOS 839 DEB","OBJECT_ID":"1976-067F","EPOCH":"2026-03-09T16:22:46.221024","MEAN_MOTION":12.33841467,"ECCENTRICITY":0.06782823,"INCLINATION":65.6829,"RA_OF_ASC_NODE":175.5493,"ARG_OF_PERICENTER":76.6832,"MEAN_ANOMALY":26.6278,"EPHEMERIS_TYPE":0,"CLASSIFICATION_TYPE":"U","NORAD_CAT_ID":10412,"ELEMENT_SET_NO":999,"REV_AT_EPOCH":23749,"BSTAR":-8.0799527e-5,"MEAN_MOTION_DOT":-7.7e-7,"MEAN_MOTION_DDOT":0}]
